CCSDS_OMM_VERS = 2.0
CREATION_DATE  = 
ORIGINATOR     = 

OBJECT_NAME    = STARLINK-36734
OBJECT_ID      = 2026-039C
CENTER_NAME    = EARTH
REF_FRAME      = TEME
TIME_SYSTEM    = UTC
MEAN_ELEMENT_THEORY = SGP/SGP4

EPOCH          = 2026-03-14T22:00:01.999584
MEAN_MOTION    = 15.63914735
ECCENTRICITY   = .00010974
INCLINATION    = 42.9994
RA_OF_ASC_NODE = 23.2353
ARG_OF_PERICENTER = 250.1694
MEAN_ANOMALY   = 307.8387

EPHEMERIS_TYPE = 0
CLASSIFICATION_TYPE = U
NORAD_CAT_ID   = 67988
ELEMENT_SET_NO = 999
REV_AT_EPOCH   = 371
BSTAR          = -.22678764E-1
MEAN_MOTION_DOT = -.1937338E-1
MEAN_MOTION_DDOT = 0

CCSDS_OMM_VERS = 2.0
CREATION_DATE  = 
ORIGINATOR     = 

OBJECT_NAME    = STARLINK-36957
OBJECT_ID      = 2026-039D
CENTER_NAME    = EARTH
REF_FRAME      = TEME
TIME_SYSTEM    = UTC
MEAN_ELEMENT_THEORY = SGP/SGP4

EPOCH          = 2026-03-14T17:31:29.704224
MEAN_MOTION    = 15.82079172
ECCENTRICITY   = .00053353
INCLINATION    = 42.9989
RA_OF_ASC_NODE = 24.0143
ARG_OF_PERICENTER = 227.1708
MEAN_ANOMALY   = 132.8716

EPHEMERIS_TYPE = 0
CLASSIFICATION_TYPE = U
NORAD_CAT_ID   = 67989
ELEMENT_SET_NO = 999
REV_AT_EPOCH   = 243
BSTAR          = .2081936E-2
MEAN_MOTION_DOT = .46368E-2
MEAN_MOTION_DDOT = 0

CCSDS_OMM_VERS = 2.0
CREATION_DATE  = 
ORIGINATOR     = 

OBJECT_NAME    = STARLINK-36951
OBJECT_ID      = 2026-039E
CENTER_NAME    = EARTH
REF_FRAME      = TEME
TIME_SYSTEM    = UTC
MEAN_ELEMENT_THEORY = SGP/SGP4

EPOCH          = 2026-03-14T22:04:26.091552
MEAN_MOTION    = 15.80717548
ECCENTRICITY   = .00017015
INCLINATION    = 42.9988
RA_OF_ASC_NODE = 22.8552
ARG_OF_PERICENTER = 249.2788
MEAN_ANOMALY   = 110.7901

EPHEMERIS_TYPE = 0
CLASSIFICATION_TYPE = U
NORAD_CAT_ID   = 67990
ELEMENT_SET_NO = 999
REV_AT_EPOCH   = 246
BSTAR          = -.45475404E-3
MEAN_MOTION_DOT = -.89738E-3
MEAN_MOTION_DDOT = 0

CCSDS_OMM_VERS = 2.0
CREATION_DATE  = 
ORIGINATOR     = 

OBJECT_NAME    = STARLINK-36941
OBJECT_ID      = 2026-039F
CENTER_NAME    = EARTH
REF_FRAME      = TEME
TIME_SYSTEM    = UTC
MEAN_ELEMENT_THEORY = SGP/SGP4

EPOCH          = 2026-03-14T22:00:01.999584
MEAN_MOTION    = 15.63563141
ECCENTRICITY   = .00011602
INCLINATION    = 42.9992
RA_OF_ASC_NODE = 23.2155
ARG_OF_PERICENTER = 248.9963
MEAN_ANOMALY   = 316.3695

EPHEMERIS_TYPE = 0
CLASSIFICATION_TYPE = U
NORAD_CAT_ID   = 67991
ELEMENT_SET_NO = 999
REV_AT_EPOCH   = 371
BSTAR          = -.22923467E-1
MEAN_MOTION_DOT = -.1931742E-1
MEAN_MOTION_DDOT = 0

CCSDS_OMM_VERS = 2.0
CREATION_DATE  = 
ORIGINATOR     = 

OBJECT_NAME    = STARLINK-36950
OBJECT_ID      = 2026-039G
CENTER_NAME    = EARTH
REF_FRAME      = TEME
TIME_SYSTEM    = UTC
MEAN_ELEMENT_THEORY = SGP/SGP4

EPOCH          = 2026-03-14T22:00:01.999584
MEAN_MOTION    = 15.69056365
ECCENTRICITY   = .00014795
INCLINATION    = 42.9991
RA_OF_ASC_NODE = 23.0199
ARG_OF_PERICENTER = 254.3761
MEAN_ANOMALY   = 29.5239

EPHEMERIS_TYPE = 0
CLASSIFICATION_TYPE = U
NORAD_CAT_ID   = 67992
ELEMENT_SET_NO = 999
REV_AT_EPOCH   = 371
BSTAR          = -.18498693E-1
MEAN_MOTION_DOT = -.1948686E-1
MEAN_MOTION_DDOT = 0

CCSDS_OMM_VERS = 2.0
CREATION_DATE  = 
ORIGINATOR     = 

OBJECT_NAME    = STARLINK-36975
OBJECT_ID      = 2026-039H
CENTER_NAME    = EARTH
REF_FRAME      = TEME
TIME_SYSTEM    = UTC
MEAN_ELEMENT_THEORY = SGP/SGP4

EPOCH          = 2026-03-14T22:00:01.999584
MEAN_MOTION    = 15.70348023
ECCENTRICITY   = .00014772
INCLINATION    = 42.9995
RA_OF_ASC_NODE = 22.9747
ARG_OF_PERICENTER = 253.5027
MEAN_ANOMALY   = 48.3877

EPHEMERIS_TYPE = 0
CLASSIFICATION_TYPE = U
NORAD_CAT_ID   = 67993
ELEMENT_SET_NO = 999
REV_AT_EPOCH   = 371
BSTAR          = -.17504266E-1
MEAN_MOTION_DOT = -.1947049E-1
MEAN_MOTION_DDOT = 0

CCSDS_OMM_VERS = 2.0
CREATION_DATE  = 
ORIGINATOR     = 

OBJECT_NAME    = STARLINK-36993
OBJECT_ID      = 2026-039J
CENTER_NAME    = EARTH
REF_FRAME      = TEME
TIME_SYSTEM    = UTC
MEAN_ELEMENT_THEORY = SGP/SGP4

EPOCH          = 2026-03-14T21:58:57.212544
MEAN_MOTION    = 15.80899598
ECCENTRICITY   = .00019722
INCLINATION    = 42.9991
RA_OF_ASC_NODE = 22.8231
ARG_OF_PERICENTER = 294.3194
MEAN_ANOMALY   = 65.7472

EPHEMERIS_TYPE = 0
CLASSIFICATION_TYPE = U
NORAD_CAT_ID   = 67994
ELEMENT_SET_NO = 999
REV_AT_EPOCH   = 246
BSTAR          = -.44471322E-3
MEAN_MOTION_DOT = -.88525E-3
MEAN_MOTION_DDOT = 0

CCSDS_OMM_VERS = 2.0
CREATION_DATE  = 
ORIGINATOR     = 

OBJECT_NAME    = STARLINK-36968
OBJECT_ID      = 2026-039K
CENTER_NAME    = EARTH
REF_FRAME      = TEME
TIME_SYSTEM    = UTC
MEAN_ELEMENT_THEORY = SGP/SGP4

EPOCH          = 2026-03-14T22:00:01.999584
MEAN_MOTION    = 15.66873582
ECCENTRICITY   = .00014486
INCLINATION    = 42.9993
RA_OF_ASC_NODE = 23.0426
ARG_OF_PERICENTER = 250.7921
MEAN_ANOMALY   = 23.8115

EPHEMERIS_TYPE = 0
CLASSIFICATION_TYPE = U
NORAD_CAT_ID   = 67995
ELEMENT_SET_NO = 999
REV_AT_EPOCH   = 371
BSTAR          = -.20128921E-1
MEAN_MOTION_DOT = -.1938507E-1
MEAN_MOTION_DDOT = 0

CCSDS_OMM_VERS = 2.0
CREATION_DATE  = 
ORIGINATOR     = 

OBJECT_NAME    = STARLINK-36979
OBJECT_ID      = 2026-039L
CENTER_NAME    = EARTH
REF_FRAME      = TEME
TIME_SYSTEM    = UTC
MEAN_ELEMENT_THEORY = SGP/SGP4

EPOCH          = 2026-03-14T21:57:42.171552
MEAN_MOTION    = 15.82002895
ECCENTRICITY   = .00015369
INCLINATION    = 42.9992
RA_OF_ASC_NODE = 22.8158
ARG_OF_PERICENTER = 248.7581
MEAN_ANOMALY   = 111.3126

EPHEMERIS_TYPE = 0
CLASSIFICATION_TYPE = U
NORAD_CAT_ID   = 67996
ELEMENT_SET_NO = 999
REV_AT_EPOCH   = 246
BSTAR          = .14454093E-2
MEAN_MOTION_DOT = .314961E-2
MEAN_MOTION_DDOT = 0

CCSDS_OMM_VERS = 2.0
CREATION_DATE  = 
ORIGINATOR     = 

OBJECT_NAME    = STARLINK-36994
OBJECT_ID      = 2026-039M
CENTER_NAME    = EARTH
REF_FRAME      = TEME
TIME_SYSTEM    = UTC
MEAN_ELEMENT_THEORY = SGP/SGP4

EPOCH          = 2026-03-14T22:00:01.999584
MEAN_MOTION    = 15.76456930
ECCENTRICITY   = .00014663
INCLINATION    = 42.9996
RA_OF_ASC_NODE = 22.8075
ARG_OF_PERICENTER = 256.5404
MEAN_ANOMALY   = 112.0670

EPHEMERIS_TYPE = 0
CLASSIFICATION_TYPE = U
NORAD_CAT_ID   = 67997
ELEMENT_SET_NO = 999
REV_AT_EPOCH   = 371
BSTAR          = -.13546738E-1
MEAN_MOTION_DOT = -.1924E-1
MEAN_MOTION_DDOT = 0

CCSDS_OMM_VERS = 2.0
CREATION_DATE  = 
ORIGINATOR     = 

OBJECT_NAME    = STARLINK-36988
OBJECT_ID      = 2026-039N
CENTER_NAME    = EARTH
REF_FRAME      = TEME
TIME_SYSTEM    = UTC
MEAN_ELEMENT_THEORY = SGP/SGP4

EPOCH          = 2026-03-14T22:00:01.999584
MEAN_MOTION    = 15.77493425
ECCENTRICITY   = .0001628
INCLINATION    = 42.9999
RA_OF_ASC_NODE = 22.8069
ARG_OF_PERICENTER = 263.8745
MEAN_ANOMALY   = 104.9746

EPHEMERIS_TYPE = 0
CLASSIFICATION_TYPE = U
NORAD_CAT_ID   = 67998
ELEMENT_SET_NO = 999
REV_AT_EPOCH   = 371
BSTAR          = -.12962786E-1
MEAN_MOTION_DOT = -.1928603E-1
MEAN_MOTION_DDOT = 0

CCSDS_OMM_VERS = 2.0
CREATION_DATE  = 
ORIGINATOR     = 

OBJECT_NAME    = STARLINK-36926
OBJECT_ID      = 2026-039P
CENTER_NAME    = EARTH
REF_FRAME      = TEME
TIME_SYSTEM    = UTC
MEAN_ELEMENT_THEORY = SGP/SGP4

EPOCH          = 2026-03-14T22:00:01.999584
MEAN_MOTION    = 15.76642613
ECCENTRICITY   = .00014626
INCLINATION    = 42.9997
RA_OF_ASC_NODE = 22.7945
ARG_OF_PERICENTER = 268.3403
MEAN_ANOMALY   = 105.4277

EPHEMERIS_TYPE = 0
CLASSIFICATION_TYPE = U
NORAD_CAT_ID   = 67999
ELEMENT_SET_NO = 999
REV_AT_EPOCH   = 371
BSTAR          = -.13445255E-1
MEAN_MOTION_DOT = -.1925356E-1
MEAN_MOTION_DDOT = 0

